{
  "type": "FeatureCollection",
  "features": [
    {
      "type": "Feature",
      "properties": {
        "norad_id": 43260,
        "name": "GAOFEN-1 03",
        "group": "resource",
        "lat": -37.17463027240995,
        "lon": -150.11364422112942,
        "alt_km": 648.421156566128,
        "timestamp": "2025-12-04T09:47:37.180336+00:00",
        "meta_object_name": "GAOFEN-1 03",
        "meta_object_id": "2018-031B",
        "meta_epoch": "2025-12-03T23:03:07.435008",
        "meta_mean_motion": 14.7640804,
        "meta_eccentricity": 0.0002594,
        "meta_inclination": 98.0811,
        "meta_ra_of_asc_node": 35.624,
        "meta_arg_of_pericenter": 356.8801,
        "meta_mean_anomaly": 3.2391,
        "meta_ephemeris_type": 0,
        "meta_classification_type": "U",
        "meta_norad_cat_id": 43260,
        "meta_element_set_no": 999,
        "meta_rev_at_epoch": 41388,
        "meta_bstar": 0.00026383809,
        "meta_mean_motion_dot": 1.782e-05,
        "meta_mean_motion_ddot": 0,
        "tle_line1": "1 43260U 18031B   25337.96050272  .00001782  00000+0  26384-3 0  9992",
        "tle_line2": "2 43260  98.0811  35.6240 0002594 356.8801   3.2391 14.76408040413881"
      },
      "geometry": {
        "type": "Point",
        "coordinates": [
          -150.11364422112942,
          -37.17463027240995
        ]
      }
    },
    {
      "type": "Feature",
      "properties": {
        "norad_id": 43262,
        "name": "GAOFEN-1 04",
        "group": "resource",
        "lat": -13.480404369349266,
        "lon": 38.19188902598563,
        "alt_km": 644.9678531935051,
        "timestamp": "2025-12-04T09:47:37.180346+00:00",
        "meta_object_name": "GAOFEN-1 04",
        "meta_object_id": "2018-031D",
        "meta_epoch": "2025-12-04T00:05:45.553344",
        "meta_mean_motion": 14.76421762,
        "meta_eccentricity": 0.00013325,
        "meta_inclination": 98.082,
        "meta_ra_of_asc_node": 35.8356,
        "meta_arg_of_pericenter": 62.0421,
        "meta_mean_anomaly": 298.0923,
        "meta_ephemeris_type": 0,
        "meta_classification_type": "U",
        "meta_norad_cat_id": 43262,
        "meta_element_set_no": 999,
        "meta_rev_at_epoch": 41388,
        "meta_bstar": 0.00027267853,
        "meta_mean_motion_dot": 1.844e-05,
        "meta_mean_motion_ddot": 0,
        "tle_line1": "1 43262U 18031D   25338.00399946  .00001844  00000+0  27268-3 0  9995",
        "tle_line2": "2 43262  98.0820  35.8356 0001332  62.0421 298.0923 14.76421762413887"
      },
      "geometry": {
        "type": "Point",
        "coordinates": [
          38.19188902598563,
          -13.480404369349266
        ]
      }
    },
    {
      "type": "Feature",
      "properties": {
        "norad_id": 43437,
        "name": "SENTINEL-3B",
        "group": "resource",
        "lat": -21.21996875228081,
        "lon": -139.66732938033957,
        "alt_km": 807.906531164298,
        "timestamp": "2025-12-04T09:47:37.180360+00:00",
        "meta_object_name": "SENTINEL-3B",
        "meta_object_id": "2018-039A",
        "meta_epoch": "2025-12-04T03:48:12.928608",
        "meta_mean_motion": 14.26737832,
        "meta_eccentricity": 0.0001479,
        "meta_inclination": 98.6278,
        "meta_ra_of_asc_node": 43.4663,
        "meta_arg_of_pericenter": 111.1167,
        "meta_mean_anomaly": 249.0172,
        "meta_ephemeris_type": 0,
        "meta_classification_type": "U",
        "meta_norad_cat_id": 43437,
        "meta_element_set_no": 999,
        "meta_rev_at_epoch": 39631,
        "meta_bstar": 0.0001497,
        "meta_mean_motion_dot": 3.19e-06,
        "meta_mean_motion_ddot": 0,
        "tle_line1": "1 43437U 18039A   25338.15848297  .00000319  00000+0  14970-3 0  9993",
        "tle_line2": "2 43437  98.6278  43.4663 0001479 111.1167 249.0172 14.26737832396318"
      },
      "geometry": {
        "type": "Point",
        "coordinates": [
          -139.66732938033957,
          -21.21996875228081
        ]
      }
    },
    {
      "type": "Feature",
      "properties": {
        "norad_id": 43461,
        "name": "GAOFEN-5 01",
        "group": "resource",
        "lat": -78.54968842207127,
        "lon": 74.15165539421368,
        "alt_km": 699.5109000386901,
        "timestamp": "2025-12-04T09:47:37.180371+00:00",
        "meta_object_name": "GAOFEN-5 01",
        "meta_object_id": "2018-043A",
        "meta_epoch": "2025-12-04T03:39:48.102048",
        "meta_mean_motion": 14.60394722,
        "meta_eccentricity": 0.000152,
        "meta_inclination": 98.4314,
        "meta_ra_of_asc_node": 300.9707,
        "meta_arg_of_pericenter": 8.4262,
        "meta_mean_anomaly": 351.6962,
        "meta_ephemeris_type": 0,
        "meta_classification_type": "U",
        "meta_norad_cat_id": 43461,
        "meta_element_set_no": 999,
        "meta_rev_at_epoch": 40322,
        "meta_bstar": 0.00020656,
        "meta_mean_motion_dot": 9.51e-06,
        "meta_mean_motion_ddot": 0,
        "tle_line1": "1 43461U 18043A   25338.15264007  .00000951  00000+0  20656-3 0  9996",
        "tle_line2": "2 43461  98.4314 300.9707 0001520   8.4262 351.6962 14.60394722403226"
      },
      "geometry": {
        "type": "Point",
        "coordinates": [
          74.15165539421368,
          -78.54968842207127
        ]
      }
    },
    {
      "type": "Feature",
      "properties": {
        "norad_id": 43484,
        "name": "GAOFEN-6",
        "group": "resource",
        "lat": 44.92460520839632,
        "lon": -129.18324189461728,
        "alt_km": 629.9739433241048,
        "timestamp": "2025-12-04T09:47:37.180381+00:00",
        "meta_object_name": "GAOFEN-6",
        "meta_object_id": "2018-048A",
        "meta_epoch": "2025-12-03T23:25:46.049088",
        "meta_mean_motion": 14.76538589,
        "meta_eccentricity": 0.00133194,
        "meta_inclination": 97.8043,
        "meta_ra_of_asc_node": 42.5372,
        "meta_arg_of_pericenter": 89.5887,
        "meta_mean_anomaly": 270.685,
        "meta_ephemeris_type": 0,
        "meta_classification_type": "U",
        "meta_norad_cat_id": 43484,
        "meta_element_set_no": 999,
        "meta_rev_at_epoch": 40458,
        "meta_bstar": 0.0001092287,
        "meta_mean_motion_dot": 7.13e-06,
        "meta_mean_motion_ddot": 0,
        "tle_line1": "1 43484U 18048A   25337.97622742  .00000713  00000+0  10923-3 0  9991",
        "tle_line2": "2 43484  97.8043  42.5372 0013319  89.5887 270.6850 14.76538589404586"
      },
      "geometry": {
        "type": "Point",
        "coordinates": [
          -129.18324189461728,
          44.92460520839632
        ]
      }
    },
    {
      "type": "Feature",
      "properties": {
        "norad_id": 43585,
        "name": "GAOFEN-11 01",
        "group": "resource",
        "lat": -68.56659105467837,
        "lon": 60.084750709404766,
        "alt_km": 425.65487821829356,
        "timestamp": "2025-12-04T09:47:37.180391+00:00",
        "meta_object_name": "GAOFEN-11 01",
        "meta_object_id": "2018-063A",
        "meta_epoch": "2025-12-04T05:26:33.040320",
        "meta_mean_motion": 15.48858422,
        "meta_eccentricity": 0.0004897,
        "meta_inclination": 97.1577,
        "meta_ra_of_asc_node": 41.2348,
        "meta_arg_of_pericenter": 350.7618,
        "meta_mean_anomaly": 9.3543,
        "meta_ephemeris_type": 0,
        "meta_classification_type": "U",
        "meta_norad_cat_id": 43585,
        "meta_element_set_no": 999,
        "meta_rev_at_epoch": 41010,
        "meta_bstar": 0.00054975,
        "meta_mean_motion_dot": 0.0002959,
        "meta_mean_motion_ddot": 0,
        "tle_line1": "1 43585U 18063A   25338.22677130  .00029590  00000+0  54975-3 0  9999",
        "tle_line2": "2 43585  97.1577  41.2348 0004897 350.7618   9.3543 15.48858422410100"
      },
      "geometry": {
        "type": "Point",
        "coordinates": [
          60.084750709404766,
          -68.56659105467837
        ]
      }
    },
    {
      "type": "Feature",
      "properties": {
        "norad_id": 43613,
        "name": "ICESAT-2",
        "group": "resource",
        "lat": -68.11050431854044,
        "lon": -116.5082269860102,
        "alt_km": 488.60505696921336,
        "timestamp": "2025-12-04T09:47:37.180401+00:00",
        "meta_object_name": "ICESAT-2",
        "meta_object_id": "2018-070A",
        "meta_epoch": "2025-12-04T03:48:20.547360",
        "meta_mean_motion": 15.28261749,
        "meta_eccentricity": 4.06e-05,
        "meta_inclination": 92.0056,
        "meta_ra_of_asc_node": 238.4208,
        "meta_arg_of_pericenter": 138.9611,
        "meta_mean_anomaly": 221.1669,
        "meta_ephemeris_type": 0,
        "meta_classification_type": "U",
        "meta_norad_cat_id": 43613,
        "meta_element_set_no": 999,
        "meta_rev_at_epoch": 40267,
        "meta_bstar": 0.00097167,
        "meta_mean_motion_dot": 0.00026796,
        "meta_mean_motion_ddot": 0,
        "tle_line1": "1 43613U 18070A   25338.15857115  .00026796  00000+0  97167-3 0  9999",
        "tle_line2": "2 43613  92.0056 238.4208 0000406 138.9611 221.1669 15.28261749402678"
      },
      "geometry": {
        "type": "Point",
        "coordinates": [
          -116.5082269860102,
          -68.11050431854044
        ]
      }
    }
  ]
}